{
  "type": "FeatureCollection",
  "features": [
    {
      "type": "Feature",
      "properties": {
        "name": "Arizona, New Mexico, Utah, and Nevada"
      },
      "geometry": {
        "type": "Polygon",
        "coordinates": [
          [
            [-120.0058, 42.0000],
            [-114.0422, 42.0000],
            [-111.0467, 42.0000],
            [-111.0467, 41.0000],
            [-109.0452, 41.0000],
            [-109.0452, 37.0000],
            [-103.0024, 37.0000],
            [-103.0024, 32.0000],
            [-106.62094,32.00342],
            [-106.6450, 31.7830],
            [-108.2120, 31.7830],
            [-108.2120, 31.3320],
            [-109.0500, 31.3320],
            [-111.0840, 31.3320],
            [ -114.81674,  32.49123],
            [-114.7300, 33.1200],
            [-114.5500, 34.2700],
            [-114.6342, 35.0000],
            [-120.0000, 39.0000],
            [-120.0058, 42.0000]
          ]
        ]
      }
    }
  ]
}
